[{"OBJECT_NAME":"STARLINK-1470","OBJECT_ID":"2020-038AU","EPOCH":"2026-03-09T14:36:51.476832","MEAN_MOTION":15.2807486,"ECCENTRICITY":0.0002444,"INCLINATION":53.048,"RA_OF_ASC_NODE":174.6971,"ARG_OF_PERICENTER":12.8687,"MEAN_ANOMALY":347.2373,"EPHEMERIS_TYPE":0,"CLASSIFICATION_TYPE":"U","NORAD_CAT_ID":45772,"ELEMENT_SET_NO":999,"REV_AT_EPOCH":31706,"BSTAR":0.0019687,"MEAN_MOTION_DOT":0.00054678,"MEAN_MOTION_DDOT":0},{"OBJECT_NAME":"STARLINK-2613","OBJECT_ID":"2021-038A","EPOCH":"2026-03-09T23:20:47.617440","MEAN_MOTION":15.30188507,"ECCENTRICITY":0.00014319,"INCLINATION":53.1597,"RA_OF_ASC_NODE":356.81,"ARG_OF_PERICENTER":90.2263,"MEAN_ANOMALY":269.8902,"EPHEMERIS_TYPE":0,"CLASSIFICATION_TYPE":"U","NORAD_CAT_ID":48353,"ELEMENT_SET_NO":999,"REV_AT_EPOCH":26712,"BSTAR":-0.00010741321,"MEAN_MOTION_DOT":-3.538e-5,"MEAN_MOTION_DDOT":0}]
